[{"OBJECT_NAME":"CHUANGXIN 16B (CX-16B)","OBJECT_ID":"2022-102B","EPOCH":"2026-03-09T15:40:32.180736","MEAN_MOTION":15.37969866,"ECCENTRICITY":0.0001033,"INCLINATION":28.9915,"RA_OF_ASC_NODE":159.7576,"ARG_OF_PERICENTER":174.5964,"MEAN_ANOMALY":185.4655,"EPHEMERIS_TYPE":0,"CLASSIFICATION_TYPE":"U","NORAD_CAT_ID":53876,"ELEMENT_SET_NO":999,"REV_AT_EPOCH":19133,"BSTAR":0.00098651,"MEAN_MOTION_DOT":0.00038409,"MEAN_MOTION_DDOT":0},{"OBJECT_NAME":"STARLINK-30466","OBJECT_ID":"2023-146P","EPOCH":"2026-03-09T22:00:01.999584","MEAN_MOTION":15.06656743,"ECCENTRICITY":0.00023085,"INCLINATION":43.0004,"RA_OF_ASC_NODE":311.9092,"ARG_OF_PERICENTER":267.3679,"MEAN_ANOMALY":62.4608,"EPHEMERIS_TYPE":0,"CLASSIFICATION_TYPE":"U","NORAD_CAT_ID":57904,"ELEMENT_SET_NO":999,"REV_AT_EPOCH":572,"BSTAR":0.10518613,"MEAN_MOTION_DOT":0.01742724,"MEAN_MOTION_DDOT":0}]
